{
  "type": "FeatureCollection",
  "features": [
    {
      "type": "Feature",
      "properties": {
        "norad_id": 34022,
        "name": "COSMOS 2251 DEB",
        "group": "cosmos-2251-debris",
        "lat": -5.247315925510806,
        "lon": 86.38937323121183,
        "alt_km": 778.3386181799724,
        "timestamp": "2025-12-15T22:44:29.323735+00:00",
        "meta_object_name": "COSMOS 2251 DEB",
        "meta_object_id": "1993-036HH",
        "meta_epoch": "2025-12-15T05:54:43.904736",
        "meta_mean_motion": 14.38967458,
        "meta_eccentricity": 0.00228158,
        "meta_inclination": 74.0542,
        "meta_ra_of_asc_node": 266.1763,
        "meta_arg_of_pericenter": 330.7358,
        "meta_mean_anomaly": 183.7075,
        "meta_ephemeris_type": 0,
        "meta_classification_type": "U",
        "meta_norad_cat_id": 34022,
        "meta_element_set_no": 999,
        "meta_rev_at_epoch": 88231,
        "meta_bstar": 0.00024859765,
        "meta_mean_motion_dot": 7.43e-06,
        "meta_mean_motion_ddot": 0,
        "tle_line1": "1 34022U 93036HH  25349.24634149  .00000743  00000+0  24860-3 0  9994",
        "tle_line2": "2 34022  74.0542 266.1763 0022815 330.7358 183.7075 14.38967458882311"
      },
      "geometry": {
        "type": "Point",
        "coordinates": [
          86.38937323121183,
          -5.247315925510806
        ]
      }
    },
    {
      "type": "Feature",
      "properties": {
        "norad_id": 34023,
        "name": "COSMOS 2251 DEB",
        "group": "cosmos-2251-debris",
        "lat": 53.23878111482098,
        "lon": 43.258658339895156,
        "alt_km": 761.7822137760013,
        "timestamp": "2025-12-15T22:44:29.323745+00:00",
        "meta_object_name": "COSMOS 2251 DEB",
        "meta_object_id": "1993-036HJ",
        "meta_epoch": "2025-12-15T04:32:52.805184",
        "meta_mean_motion": 14.4056646,
        "meta_eccentricity": 0.00185643,
        "meta_inclination": 74.0247,
        "meta_ra_of_asc_node": 247.2096,
        "meta_arg_of_pericenter": 342.48,
        "meta_mean_anomaly": 171.1339,
        "meta_ephemeris_type": 0,
        "meta_classification_type": "U",
        "meta_norad_cat_id": 34023,
        "meta_element_set_no": 999,
        "meta_rev_at_epoch": 88249,
        "meta_bstar": 0.00033156153,
        "meta_mean_motion_dot": 1.032e-05,
        "meta_mean_motion_ddot": 0,
        "tle_line1": "1 34023U 93036HJ  25349.18950006  .00001032  00000+0  33156-3 0  9991",
        "tle_line2": "2 34023  74.0247 247.2096 0018564 342.4800 171.1339 14.40566460882495"
      },
      "geometry": {
        "type": "Point",
        "coordinates": [
          43.258658339895156,
          53.23878111482098
        ]
      }
    },
    {
      "type": "Feature",
      "properties": {
        "norad_id": 34024,
        "name": "COSMOS 2251 DEB",
        "group": "cosmos-2251-debris",
        "lat": 67.13797638952663,
        "lon": -7.164797752533297,
        "alt_km": 762.4874842654581,
        "timestamp": "2025-12-15T22:44:29.323755+00:00",
        "meta_object_name": "COSMOS 2251 DEB",
        "meta_object_id": "1993-036HK",
        "meta_epoch": "2025-12-15T08:02:43.644768",
        "meta_mean_motion": 14.35399516,
        "meta_eccentricity": 0.00211565,
        "meta_inclination": 74.0466,
        "meta_ra_of_asc_node": 311.236,
        "meta_arg_of_pericenter": 1.333,
        "meta_mean_anomaly": 148.9527,
        "meta_ephemeris_type": 0,
        "meta_classification_type": "U",
        "meta_norad_cat_id": 34024,
        "meta_element_set_no": 999,
        "meta_rev_at_epoch": 88061,
        "meta_bstar": 0.00021183123,
        "meta_mean_motion_dot": 5.84e-06,
        "meta_mean_motion_ddot": 0,
        "tle_line1": "1 34024U 93036HK  25349.33522737  .00000584  00000+0  21183-3 0  9993",
        "tle_line2": "2 34024  74.0466 311.2360 0021156   1.3330 148.9527 14.35399516880618"
      },
      "geometry": {
        "type": "Point",
        "coordinates": [
          -7.164797752533297,
          67.13797638952663
        ]
      }
    },
    {
      "type": "Feature",
      "properties": {
        "norad_id": 34026,
        "name": "COSMOS 2251 DEB",
        "group": "cosmos-2251-debris",
        "lat": -50.39077160082305,
        "lon": 172.5638064590399,
        "alt_km": 800.3041626301647,
        "timestamp": "2025-12-15T22:44:29.323767+00:00",
        "meta_object_name": "COSMOS 2251 DEB",
        "meta_object_id": "1993-036HM",
        "meta_epoch": "2025-12-15T05:53:14.579232",
        "meta_mean_motion": 13.65312695,
        "meta_eccentricity": 0.03503623,
        "meta_inclination": 73.7669,
        "meta_ra_of_asc_node": 333.1188,
        "meta_arg_of_pericenter": 202.7582,
        "meta_mean_anomaly": 178.0703,
        "meta_ephemeris_type": 0,
        "meta_classification_type": "U",
        "meta_norad_cat_id": 34026,
        "meta_element_set_no": 999,
        "meta_rev_at_epoch": 83566,
        "meta_bstar": 0.00064611792,
        "meta_mean_motion_dot": 7.75e-06,
        "meta_mean_motion_ddot": 0,
        "tle_line1": "1 34026U 93036HM  25349.24530763  .00000775  00000+0  64612-3 0  9999",
        "tle_line2": "2 34026  73.7669 333.1188 0350362 202.7582 178.0703 13.65312695835662"
      },
      "geometry": {
        "type": "Point",
        "coordinates": [
          172.5638064590399,
          -50.39077160082305
        ]
      }
    },
    {
      "type": "Feature",
      "properties": {
        "norad_id": 34028,
        "name": "COSMOS 2251 DEB",
        "group": "cosmos-2251-debris",
        "lat": 73.80671006326487,
        "lon": 66.94531663817826,
        "alt_km": 817.3460308466083,
        "timestamp": "2025-12-15T22:44:29.323778+00:00",
        "meta_object_name": "COSMOS 2251 DEB",
        "meta_object_id": "1993-036HP",
        "meta_epoch": "2025-12-15T08:21:00.726048",
        "meta_mean_motion": 13.20624761,
        "meta_eccentricity": 0.05436178,
        "meta_inclination": 73.8834,
        "meta_ra_of_asc_node": 343.2515,
        "meta_arg_of_pericenter": 120.6531,
        "meta_mean_anomaly": 1.1586,
        "meta_ephemeris_type": 0,
        "meta_classification_type": "U",
        "meta_norad_cat_id": 34028,
        "meta_element_set_no": 999,
        "meta_rev_at_epoch": 81042,
        "meta_bstar": 0.00029309605,
        "meta_mean_motion_dot": 2.42e-06,
        "meta_mean_motion_ddot": 0,
        "tle_line1": "1 34028U 93036HP  25349.34792507  .00000242  00000+0  29310-3 0  9993",
        "tle_line2": "2 34028  73.8834 343.2515 0543617 120.6531   1.1586 13.20624761810427"
      },
      "geometry": {
        "type": "Point",
        "coordinates": [
          66.94531663817826,
          73.80671006326487
        ]
      }
    },
    {
      "type": "Feature",
      "properties": {
        "norad_id": 34031,
        "name": "COSMOS 2251 DEB",
        "group": "cosmos-2251-debris",
        "lat": -0.4723804033387012,
        "lon": -50.283303507308375,
        "alt_km": 690.9702189904292,
        "timestamp": "2025-12-15T22:44:29.323789+00:00",
        "meta_object_name": "COSMOS 2251 DEB",
        "meta_object_id": "1993-036HS",
        "meta_epoch": "2025-12-15T08:53:00.831264",
        "meta_mean_motion": 14.59721149,
        "meta_eccentricity": 0.00230112,
        "meta_inclination": 74.0124,
        "meta_ra_of_asc_node": 130.6837,
        "meta_arg_of_pericenter": 250.91,
        "meta_mean_anomaly": 136.6475,
        "meta_ephemeris_type": 0,
        "meta_classification_type": "U",
        "meta_norad_cat_id": 34031,
        "meta_element_set_no": 999,
        "meta_rev_at_epoch": 88604,
        "meta_bstar": 0.00089833114,
        "meta_mean_motion_dot": 4.273e-05,
        "meta_mean_motion_ddot": 0,
        "tle_line1": "1 34031U 93036HS  25349.37014851  .00004273  00000+0  89833-3 0  9993",
        "tle_line2": "2 34031  74.0124 130.6837 0023011 250.9100 136.6475 14.59721149886044"
      },
      "geometry": {
        "type": "Point",
        "coordinates": [
          -50.283303507308375,
          -0.4723804033387012
        ]
      }
    },
    {
      "type": "Feature",
      "properties": {
        "norad_id": 34035,
        "name": "COSMOS 2251 DEB",
        "group": "cosmos-2251-debris",
        "lat": -67.44390620100741,
        "lon": -153.4343495655953,
        "alt_km": 725.988477564636,
        "timestamp": "2025-12-15T22:44:29.323799+00:00",
        "meta_object_name": "COSMOS 2251 DEB",
        "meta_object_id": "1993-036HW",
        "meta_epoch": "2025-12-15T03:58:23.685024",
        "meta_mean_motion": 14.51975892,
        "meta_eccentricity": 0.00448723,
        "meta_inclination": 74.0656,
        "meta_ra_of_asc_node": 344.5777,
        "meta_arg_of_pericenter": 345.5597,
        "meta_mean_anomaly": 142.7606,
        "meta_ephemeris_type": 0,
        "meta_classification_type": "U",
        "meta_norad_cat_id": 34035,
        "meta_element_set_no": 999,
        "meta_rev_at_epoch": 88001,
        "meta_bstar": 0.0011160343,
        "meta_mean_motion_dot": 4.54e-05,
        "meta_mean_motion_ddot": 0,
        "tle_line1": "1 34035U 93036HW  25349.16555191  .00004540  00000+0  11160-2 0  9995",
        "tle_line2": "2 34035  74.0656 344.5777 0044872 345.5597 142.7606 14.51975892880019"
      },
      "geometry": {
        "type": "Point",
        "coordinates": [
          -153.4343495655953,
          -67.44390620100741
        ]
      }
    }
  ]
}